CCSDS_OEM_VERS = 1.0
CREATION_DATE  = 2017-05-11T11:05:33
ORIGINATOR     = GMAT USER

META_START
OBJECT_NAME          = MOPSSat_alt_35785_km_RAAN_0_126
OBJECT_ID            = SatId
CENTER_NAME          = Earth
REF_FRAME            = EME2000
TIME_SYSTEM          = UTC
START_TIME           = 2017-01-01T00:00:00.000
USEABLE_START_TIME   = 2017-01-01T00:00:00.000
USEABLE_STOP_TIME    = 2017-01-02T00:00:00.000
STOP_TIME            = 2017-01-02T00:00:00.000
INTERPOLATION        = Lagrange
INTERPOLATION_DEGREE = 7 
META_STOP


                                                                                   

2017-01-01T05:48:20.000  -2.285383432120848e+04   3.901961596708747e+04   3.407035878263949e+02  -2.781520068732388e+00  -6.621330649343755e-01  -5.742635995454369e-03
2017-01-01T05:48:30.000  -2.288164459522054e+04   3.901298622909083e+04   3.406460882558460e+02  -2.780534669737153e+00  -6.638143424107155e-01  -5.757276439147445e-03
2017-01-01T05:48:40.000  -2.290944501178554e+04   3.900633968444570e+04   3.405884423342967e+02  -2.779548618205530e+00  -6.654944040430311e-01  -5.771906277166397e-03
2017-01-01T05:48:50.000  -2.293723556451175e+04   3.899967634527676e+04   3.405306501675107e+02  -2.778561915286609e+00  -6.671732504467605e-01  -5.786525514900314e-03
2017-01-01T05:49:00.000  -2.296501624701667e+04   3.899299622370312e+04   3.404727118612026e+02  -2.777574562127643e+00  -6.688508822372623e-01  -5.801134157737569e-03
2017-01-01T05:49:10.000  -2.299278705291705e+04   3.898629933184081e+04   3.404146275210605e+02  -2.776586559874406e+00  -6.705273000292171e-01  -5.815732211060638e-03
2017-01-01T05:49:20.000  -2.302054797580056e+04   3.897958568180848e+04   3.403563972527938e+02  -2.775597909672141e+00  -6.722025044348803e-01  -5.830319680230847e-03
2017-01-01T05:49:30.000  -2.304829900920435e+04   3.897285528573393e+04   3.402980211621915e+02  -2.774608612666403e+00  -6.738764960628316e-01  -5.844896570577503e-03
2017-01-01T05:49:40.000  -2.307604014669635e+04   3.896610815573393e+04   3.402394993549459e+02  -2.773618670000127e+00  -6.755492755228599e-01  -5.859462887440431e-03
2017-01-01T05:49:50.000  -2.310377138151071e+04   3.895934430400463e+04   3.401808319374375e+02  -2.772628082826744e+00  -6.772208434040391e-01  -5.874018635979069e-03
2017-01-01T05:50:00.000  -2.313149270698968e+04   3.895256374271231e+04   3.401220190157872e+02  -2.771636852294318e+00  -6.788912003013184e-01  -5.888563821403997e-03
2017-01-01T05:50:10.000  -2.315920411641929e+04   3.894576648403377e+04   3.400630606962072e+02  -2.770644979551431e+00  -6.805603468056175e-01  -5.903098448890701e-03
2017-01-01T05:50:20.000  -2.318690560366665e+04   3.893895254000031e+04   3.400039570836458e+02  -2.769652465724390e+00  -6.822282835422332e-01  -5.917622523914002e-03
2017-01-01T05:50:30.000  -2.321459716254413e+04   3.893212192265310e+04   3.399447082831382e+02  -2.768659311939966e+00  -6.838950111325149e-01  -5.932136051914326e-03
2017-01-01T05:50:40.000  -2.324227878695347e+04   3.892527464400855e+04   3.398853143995025e+02  -2.767665519320262e+00  -6.855605302025698e-01  -5.946639038373518e-03
2017-01-01T05:50:50.000  -2.326995047052599e+04   3.891841071614438e+04   3.398257755380894e+02  -2.766671088995492e+00  -6.872248413615220e-01  -5.961131488625530e-03
2017-01-01T05:51:00.000  -2.329761220689008e+04   3.891153015113631e+04   3.397660918042316e+02  -2.765676022094520e+00  -6.888879452176963e-01  -5.975613407997348e-03
2017-01-01T05:51:10.000  -2.332526398967068e+04   3.890463296105718e+04   3.397062633032351e+02  -2.764680319744837e+00  -6.905498423785512e-01  -5.990084801808388e-03
2017-01-01T05:51:20.000  -2.335290581222460e+04   3.889771915804529e+04   3.396462901409751e+02  -2.763683983082205e+00  -6.922105334348553e-01  -6.004545675232733e-03
2017-01-01T05:51:30.000  -2.338053766799757e+04   3.889078875421318e+04   3.395861724231009e+02  -2.762687013237701e+00  -6.938700189820590e-01  -6.018996033485203e-03
2017-01-01T05:51:40.000  -2.340815955038322e+04   3.888384176168322e+04   3.395259102553488e+02  -2.761689411342813e+00  -6.955282996118511e-01  -6.033435881747868e-03
2017-01-01T05:51:50.000  -2.343577145334667e+04   3.887687819243100e+04   3.394655037421792e+02  -2.760691178506928e+00  -6.971853759495876e-01  -6.047865225495945e-03
2017-01-01T05:52:00.000  -2.346337337080089e+04   3.886989805844186e+04   3.394049529881380e+02  -2.759692315839852e+00  -6.988412486168485e-01  -6.062284070171759e-03
2017-01-01T05:52:10.000  -2.349096529674785e+04   3.886290137167576e+04   3.393442580975498e+02  -2.758692824446730e+00  -7.004959182399226e-01  -6.076692421258631e-03
2017-01-01T05:52:20.000  -2.351854722491982e+04   3.885588814415564e+04   3.392834191752848e+02  -2.757692705440898e+00  -7.021493854282096e-01  -6.091090284092797e-03
2017-01-01T05:52:30.000  -2.354611914904605e+04   3.884885838790245e+04   3.392224363261963e+02  -2.756691959934376e+00  -7.038016507903003e-01  -6.105477664003420e-03
2017-01-01T05:52:40.000  -2.357368106285215e+04   3.884181211493431e+04   3.391613096551118e+02  -2.755690589037836e+00  -7.054527149339059e-01  -6.119854566312012e-03
2017-01-01T05:52:50.000  -2.360123295979647e+04   3.883474933733640e+04   3.391000392674404e+02  -2.754688593870310e+00  -7.071025784501420e-01  -6.134220996195552e-03
2017-01-01T05:53:00.000  -2.362877483342570e+04   3.882767006716756e+04   3.390386252683623e+02  -2.753685975546146e+00  -7.087512419347579e-01  -6.148576958871372e-03
2017-01-01T05:53:10.000  -2.365630667723197e+04   3.882057431649768e+04   3.389770677631525e+02  -2.752682735180242e+00  -7.103987059795920e-01  -6.162922459522723e-03
2017-01-01T05:53:20.000  -2.368382848528450e+04   3.881346209724470e+04   3.389153668557681e+02  -2.751678873865031e+00  -7.120449712103725e-01  -6.177257503627944e-03
2017-01-01T05:53:30.000  -2.371134025159615e+04   3.880633342133780e+04   3.388535226502624e+02  -2.750674392693548e+00  -7.136900382488065e-01  -6.191582096630345e-03
2017-01-01T05:53:40.000  -2.373884197028710e+04   3.879918830067539e+04   3.387915352504222e+02  -2.749669292753495e+00  -7.153339077223757e-01  -6.205896244023512e-03
2017-01-01T05:53:50.000  -2.376633363514451e+04   3.879202674723741e+04   3.387294047607400e+02  -2.748663575143210e+00  -7.169765802379514e-01  -6.220199951121542e-03
2017-01-01T05:54:00.000  -2.379381523998598e+04   3.878484877299295e+04   3.386671312856146e+02  -2.747657240958503e+00  -7.186180564035862e-01  -6.234493223248812e-03
2017-01-01T05:54:10.000  -2.382128677857570e+04   3.877765438992154e+04   3.386047149295343e+02  -2.746650291295692e+00  -7.202583368234845e-01  -6.248776065696176e-03
2017-01-01T05:54:20.000  -2.384874824465756e+04   3.877044361000581e+04   3.385421557970142e+02  -2.745642727250464e+00  -7.218974221000172e-01  -6.263048483738508e-03
2017-01-01T05:54:30.000  -2.387619963196987e+04   3.876321644522659e+04   3.384794539925533e+02  -2.744634549917286e+00  -7.235353128345711e-01  -6.277310482642104e-03
2017-01-01T05:54:40.000  -2.390364093427820e+04   3.875597290755421e+04   3.384166096205587e+02  -2.743625760388189e+00  -7.251720096295078e-01  -6.291562067681727e-03
2017-01-01T05:54:50.000  -2.393107214539137e+04   3.874871300894549e+04   3.383536227853195e+02  -2.742616359752252e+00  -7.268075130891472e-01  -6.305803244149181e-03
2017-01-01T05:55:00.000  -2.395849325919294e+04   3.874143676133388e+04   3.382904935909229e+02  -2.741606349094373e+00  -7.284418238216063e-01  -6.320034017369330e-03
2017-01-01T05:55:10.000  -2.398590426955825e+04   3.873414417665226e+04   3.382272221414495e+02  -2.740595729498351e+00  -7.300749424338693e-01  -6.334254392657148e-03
2017-01-01T05:55:20.000  -2.401330517071455e+04   3.872683526673502e+04   3.381638085401248e+02  -2.739584502033521e+00  -7.317068695531859e-01  -6.348464375504073e-03
2017-01-01T05:55:30.000  -2.404069595680424e+04   3.871951004343628e+04   3.381002528903458e+02  -2.738572667770944e+00  -7.333376058011092e-01  -6.362663971351911e-03
2017-01-01T05:55:40.000  -2.406807662205012e+04   3.871216851858530e+04   3.380365552952927e+02  -2.737560227777302e+00  -7.349671518033177e-01  -6.376853185678396e-03
2017-01-01T05:55:50.000  -2.409544716011504e+04   3.870481070415810e+04   3.379727158594188e+02  -2.736547183138567e+00  -7.365955081515067e-01  -6.391032023665313e-03
2017-01-01T05:56:00.000  -2.412280756474221e+04   3.869743661210609e+04   3.379087346869629e+02  -2.735533534936338e+00  -7.382226754415036e-01  -6.405200490530428e-03
2017-01-01T05:56:10.000  -2.415015782958985e+04   3.869004625440001e+04   3.378446118823320e+02  -2.734519284253949e+00  -7.398486542634152e-01  -6.419358591441683e-03
2017-01-01T05:56:20.000  -2.417749794866902e+04   3.868263964291391e+04   3.377803475490929e+02  -2.733504432160339e+00  -7.414734452277246e-01  -6.433506331744434e-03
2017-01-01T05:56:30.000  -2.420482791598205e+04   3.867521678952071e+04   3.377159417908025e+02  -2.732488979723364e+00  -7.430970489437312e-01  -6.447643716773723e-03
2017-01-01T05:56:40.000  -2.423214772560594e+04   3.866777770607003e+04   3.376513947108151e+02  -2.731472928006722e+00  -7.447194660245241e-01  -6.461770751897561e-03
2017-01-01T05:56:50.000  -2.425945737165944e+04   3.866032240439603e+04   3.375867064123499e+02  -2.730456278071118e+00  -7.463406970849814e-01  -6.475887442499537e-03
2017-01-01T05:57:00.000  -2.428675684828833e+04   3.865285089632239e+04   3.375218769985348e+02  -2.729439030974865e+00  -7.479607427409320e-01  -6.489993793971496e-03
2017-01-01T05:57:10.000  -2.431404614963266e+04   3.864536319367111e+04   3.374569065724833e+02  -2.728421187775108e+00  -7.495796036072112e-01  -6.504089811696616e-03
2017-01-01T05:57:20.000  -2.434132526981097e+04   3.863785930826602e+04   3.373917952373236e+02  -2.727402749528353e+00  -7.511972802966862e-01  -6.518175501040930e-03
